C/2024 E2 (Bok),e,155.6513,135.6567,358.1609,51.40203,0.0026744,0.85027600,1.8336,09/10.0/2025,2000,g  8.0,4.0
# From MPEC 2024-JU4
P/2024 F1 (PANSTARRS),e,7.0051,251.5411,229.5824,3.444164,0.1541979,0.46001132,105.6525,09/10.0/2025,2000,g 16.0,4.0
# From MPEC 2025-R69
C/2024 F2 (PANSTARRS),e,13.7436,138.9392,112.8919,9.946211,0.0314208,0.60109240,12.8200,09/10.0/2025,2000,g 11.0,4.0
# From MPEC 2024-UA9
P/2024 FG9 (Nanshan-Hahn),e,1.7312,253.0426,245.9360,3.257745,0.1676210,0.50995790,80.0510,09/10.0/2025,2000,g 14.0,4.0
# From MPC184412
C/2024 G1 (Wierzchos),e,95.3910,30.6055,128.2225,122.2552,0.0007291,0.96785353,0.2362,09/10.0/2025,2000,g 10.0,4.0
# From MPC186631
C/2024 G2 (ATLAS),e,122.1231,171.3980,328.7394,722.1770,0.0000508,0.99259426,0.0000,06/13.5439/2025,2000,g  7.0,4.0
# From MPC184412
C/2024 G3 (ATLAS),h,01/13.4242/2025,116.8475,220.3559,108.1355,1.000006,0.093585,2000,9.0,4.0
# From MPEC 2025-R69
C/2024 G4 (PANSTARRS),e,33.0269,152.9783,131.4188,3167,0.0000055,0.99845246,0.0000,03/21.5807/2026,2000,g  8.0,4.0
# From MPEC 2024-JC6
C/2024 G5 (Leonard),e,50.3872,316.3898,209.5852,580.9035,0.0000704,0.99491635,0.0000,09/07.0741/2024,2000,g 13.0,4.0
# From MPEC 2025-R69
C/2024 G6 (ATLAS),h,02/20.6790/2026,120.4546,250.9517,23.4329,1.002074,6.429934,2000,5.5,4.0
# From MPC184412
C/2024 G7 (ATLAS),h,02/10.0645/2025,131.5135,191.9661,289.6549,1.001902,6.027597,2000,7.0,4.0
# From MPEC 2024-Q05
A/2024 G8,e,97.4197,11.2500,249.1565,141.1922,0.0005875,0.99169583,0.0000,06/15.5735/2024,2000,g 20.0,2.0
# From MPEC 2024-JU4
P/2024 J1 (PANSTARRS),e,13.1598,321.9356,200.3670,3.808680,0.1325996,0.30778226,88.6626,09/10.0/2025,2000,g 14.5,4.0
# From MPEC 2025-R69
C/2024 J2 (Wierzchos),e,79.2963,189.0580,143.1555,147.2640,0.0005515,0.98770144,0.0000,03/19.7797/2025,2000,g 11.5,4.0
# From MPEC 2025-R69
C/2024 J3 (ATLAS),h,11/25.3568/2026,75.6414,285.9614,74.0885,1.000617,3.865298,2000,5.0,4.0
# From MPEC 2025-R69
C/2024 J4 (Lemmon),e,117.5275,19.3085,127.8569,6352,0.0000019,0.99910345,0.0000,04/25.9787/2025,2000,g  8.0,4.0
# From MPEC 2024-LB4
P/2024 K1 (PANSTARRS),e,1.7861,251.6876,351.9159,6.844099,0.0550465,0.49515804,26.9241,09/10.0/2025,2000,g 13.5,4.0
# From MPC186631
C/2024 L1 (PANSTARRS),e,99.1629,45.1394,171.7889,11.46519,0.0253882,0.53353847,3.5522,09/10.0/2025,2000,g 10.0,4.0
# From MPEC 2024-P23
C/2024 L2 (PANSTARRS),e,139.4875,266.2858,345.6092,474.4692,0.0000954,0.98245143,0.0000,06/12.6550/2025,2000,g  7.5,3.2
# From MPEC 2024-RQ6
C/2024 L3 (PANSTARRS),h,11/24.0488/2023,111.5917,294.9976,59.0722,1.003607,6.857814,2000,9.5,4.0
# From MPC186631
C/2024 L5 (ATLAS),h,03/10.3943/2025,166.5727,139.1781,290.5167,1.037030,3.432442,2000,9.0,4.0
# From MPEC 2025-R69
C/2024 M1 (ATLAS),e,73.7094,76.2138,345.5855,29.77727,0.0060656,0.94279853,1.7834,09/10.0/2025,2000,g 12.0,4.0
# From MPEC 2025-R69
C/2024 N1 (PANSTARRS),h,10/18.8594/2025,88.7815,323.0233,91.2518,1.001146,4.398397,2000,10.5,4.0
# From MPEC 2025-R69
C/2024 N3 (Sarneczky),h,04/11.4760/2025,88.7289,82.6088,86.8891,1.001591,5.014618,2000,8.0,4.0
# From MPC185659
C/2024 N4 (Sarneczky),h,01/10.2926/2025,49.7767,339.6545,116.7197,1.004307,5.398014,2000,7.5,4.0
# From MPEC 2024-PC5
C/2024 O1 (PANSTARRS),h,01/28.3757/2023,59.0807,303.3439,349.8763,1.000446,6.606297,2000,8.5,4.0
# From MPEC 2024-UA9
P/2024 O2 (PANSTARRS),e,28.9776,6.8062,310.7812,7.380342,0.0491575,0.49897351,24.9670,09/10.0/2025,2000,g 12.0,4.0
# From MPEC 2025-A40
P/2024 OC2 (PANSTARRS),e,7.6710,136.6144,258.5425,2.625510,0.2316773,0.77415384,77.7728,09/10.0/2025,2000,g 20.5,4.0
# From MPC186632
C/2024 PN7 (PANSTARRS),e,101.2077,358.5844,74.2730,67.20254,0.0017891,0.97731367,0.0000,12/06.4301/2024,2000,g 15.2,4.0
# From MPEC 2024-UQ8
P/2024 Q1 (PANSTARRS),e,5.0090,23.0735,284.6270,3.523295,0.1490324,0.53476739,67.4099,09/10.0/2025,2000,g 17.0,4.0
# From MPC185660
C/2024 Q3 (PANSTARRS),h,03/05.2167/2025,121.3773,337.2884,70.1278,1.001455,2.091563,2000,15.0,4.0
# From MPEC 2025-R69
C/2024 Q4 (PANSTARRS),e,3.3158,324.2675,133.0411,622.9337,0.0000634,0.99130025,0.0000,11/11.9898/2024,2000,g 10.0,4.0
# From MPEC 2024-TP3
P/2024 R1 (PANSTARRS),e,12.7324,84.9848,230.7694,3.457627,0.1532981,0.49310560,69.1401,09/10.0/2025,2000,g 18.0,4.0
# From MPC182883
P/2024 R2 (PANSTARRS),e,15.1170,192.9928,203.8991,3.148508,0.1764196,0.26871524,60.5847,09/10.0/2025,2000,g 15.5,4.0
# From MPEC 2024-YC7
P/2024 R3 (PANSTARRS),e,14.7097,33.1927,309.4164,3.202463,0.1719800,0.26751051,84.1466,09/10.0/2025,2000,g 15.0,4.0
# From MPEC 2025-R69
C/2024 R4 (PANSTARRS),h,10/26.6629/2027,95.3672,345.9374,108.9966,1.002578,4.408939,2000,6.5,4.0
# From MPEC 2025-R69
C/2024 S1 (ATLAS),e,142.1144,347.8979,69.7636,86.60418,0.0012229,0.99990783,0.0000,10/28.4644/2024,2000,g 15.5,4.0
# From MPEC 2025-A40
P/2024 S2 (Rankin),e,7.5262,8.3356,49.1597,5.037097,0.0871834,0.59351161,31.2760,09/10.0/2025,2000,g 15.0,4.0
# From MPC182883
P/2024 T1 (Rankin),e,17.6201,279.7099,164.8662,6.598510,0.0581481,0.65339447,20.0389,09/10.0/2025,2000,g 14.5,4.0
# From MPC184413
P/2024 T2 (Rankin),e,12.9289,113.0607,343.8303,6.171438,0.0642872,0.68040281,17.7221,09/10.0/2025,2000,g 16.0,4.0
# From MPC186632
C/2024 T3 (PANSTARRS),e,53.4539,74.8326,336.8876,88.21132,0.0011896,0.95787358,0.2126,09/10.0/2025,2000,g 11.5,4.0
# From MPEC 2025-R69
C/2024 T5 (ATLAS),h,05/06.1746/2027,52.3868,100.6801,352.4458,1.002314,3.840919,2000,5.5,4.0
# From MPC182883
C/2024 U1 (PANSTARRS),e,128.7550,270.2636,188.0883,480.5221,0.0000936,0.98993488,0.0000,06/30.4670/2024,2000,g 10.0,4.0
# From MPEC 2025-R69
A/2024 U2,h,01/15.1277/2026,120.6627,56.0694,29.8137,1.002772,8.179223,2000,12.1,2.0
# From MPC185660
C/2024 V1 (Borisov),e,54.6257,328.1945,168.6698,231.8772,0.0002791,0.99000118,0.0000,04/04.1143/2025,2000,g 14.8,4.0
# From MPEC 2024-YC7
C/2024 V2 (Sarneczky),e,95.9726,102.2007,13.7294,39.33805,0.0039947,0.96839676,1.2390,09/10.0/2025,2000,g 19.0,4.0
# From MPC182883
C/2024 W1 (PANSTARRS),e,83.2012,310.7259,256.7419,44.92107,0.0032736,0.94299431,0.5725,09/10.0/2025,2000,g 15.0,4.0
# From MPC182883
A/2024 W2,h,02/27.4118/2025,116.6119,241.9370,168.0042,1.002325,3.720731,2000,15.6,2.0
# From MPC182884
C/2024 X1 (Fazekas),e,6.4672,351.9548,124.3810,9.442601,0.0339677,0.59580340,1.2786,09/10.0/2025,2000,g 11.3,4.0
# From MPC185660
C/2024 X2 (ATLAS),e,109.2219,122.5223,315.7877,50.66100,0.0027333,0.92743295,0.1752,09/10.0/2025,2000,g  9.6,4.0
# From MPC185660
P/2024 X3 (PANSTARRS),e,2.9723,113.3640,352.9543,6.994117,0.0532850,0.62620073,19.6728,09/10.0/2025,2000,g 14.6,4.0
# From MPEC 2025-A40
C/2024 X4 (PANSTARRS),e,34.6679,258.9444,153.2967,10.06969,0.0308447,0.64202058,0.2485,09/10.0/2025,2000,g 12.6,4.0
# From MPC186632
C/2024 XK14 (Bok),e,109.2141,239.0895,243.4906,17.00688,0.0140529,0.87889462,1.5750,09/10.0/2025,2000,g 15.5,4.0
# From MPC182884
C/2024 Y1 (Masek),e,64.7982,112.5441,238.1215,62.74190,0.0019832,0.98690561,0.0000,11/26.9348/2024,2000,g 17.6,4.0
# From MPC182884
A/2025 A1,h,03/12.6487/2027,33.4413,101.3310,68.1211,1.004223,5.339552,2000,11.3,2.0
# From MPC184414
P/2025 A2 (PANSTARRS),e,20.7345,189.3185,278.0503,5.083605,0.0859897,0.32203715,29.1797,09/10.0/2025,2000,g 13.2,4.0
# From MPC184414
C/2025 A3 (Tsuchinshan),e,9.9763,322.4322,222.3146,10.19566,0.0302748,0.43189424,354.3657,09/10.0/2025,2000,g  9.0,4.0
# From MPC185660
C/2025 A4 (PANSTARRS),e,32.0251,69.9140,102.8010,11.05617,0.0268100,0.65410599,6.4292,09/10.0/2025,2000,g 12.4,4.0
# From MPEC 2025-R69
C/2025 A6 (Lemmon),e,143.6636,108.0977,132.9682,121.7217,0.0007339,0.99564661,0.0000,11/08.5374/2025,2000,g 13.2,4.0
# From MPC184414
A/2025 A7,e,133.6527,348.8492,195.5748,4513,0.0000033,0.99936106,0.0000,03/28.1220/2025,2000,g 14.9,2.0
# From MPC182885
C/2025 B1 (PANSTARRS),h,06/26.7616/2025,39.6808,102.8416,23.5250,1.000370,3.530890,2000,12.0,4.0
# From MPEC 2025-R69
C/2025 B2 (Borisov),h,09/11.2152/2026,91.7445,84.8662,78.8204,1.001081,8.240193,2000,6.2,4.0
# From MPC185660
P/2025 C1 (ATLAS),e,7.5168,9.1004,186.8057,4.195944,0.1146726,0.34554948,24.7027,09/10.0/2025,2000,g 10.8,4.0
# From MPC185660
C/2025 D1 (Groeller),h,05/20.5734/2028,84.4589,312.9006,185.9070,1.002987,14.118047,2000,1.2,4.0
# From MPC182885
P/2025 D2 (PANSTARRS),e,5.3344,256.7331,314.0376,8.923373,0.0369752,0.17895845,317.4077,09/10.0/2025,2000,g  8.2,4.0
# From MPC186632
P/2025 D3 (PANSTARRS),e,9.6436,186.6357,294.4913,3.967371,0.1247240,0.25247016,51.2826,09/10.0/2025,2000,g 14.7,4.0
# From MPEC 2025-R69
P/2025 D4 (ATLAS),e,15.9400,233.1198,332.8880,8.905593,0.0370860,0.63451153,7.7033,09/10.0/2025,2000,g 13.2,4.0
# From MPC184415
C/2025 D5 (PANSTARRS),e,73.3807,0.7367,211.4936,3233,0.0000054,0.99937765,0.0000,05/13.2920/2025,2000,g 17.6,4.0
# From MPC184415
C/2025 D6 (ATLAS),e,145.7905,151.4873,285.4079,1559,0.0000160,0.99839359,0.0000,12/11.3875/2024,2000,g 13.2,4.0
# From MPC184415
C/2025 E1 (PANSTARRS),e,69.0632,344.5951,274.4211,1485,0.0000172,0.99730779,0.0000,09/23.7299/2026,2000,g  9.7,4.0
# From MPC185661
C/2025 F1 (ATLAS),e,109.2373,122.7055,334.2256,286.2884,0.0002035,0.99626279,0.0000,04/20.4693/2025,2000,g 18.0,4.0
# From MPC184415
C/2025 F2 (SWAN),h,05/01.1603/2025,90.3656,329.8388,153.8371,1.000094,0.333502,2000,11.2,4.0
# From MPEC 2025-R69
C/2025 J1 (Borisov),e,95.4450,273.9759,166.6173,1137,0.0000257,0.99685126,0.0000,06/11.8099/2026,2000,g  9.1,4.0
# From MPEC 2025-R69
C/2025 K1 (ATLAS),h,10/08.4393/2025,147.8642,97.5577,271.0271,1.000260,0.334187,2000,12.2,4.0
# From MPC186633
C/2025 K2 (PANSTARRS),e,113.9791,113.8287,232.4650,25.34895,0.0077226,0.88703009,359.6500,09/10.0/2025,2000,g 13.7,4.0
# From MPEC 2025-R69
C/2025 K3 (PANSTARRS),h,12/14.1649/2028,104.9341,350.6263,188.5831,1.001479,3.470910,2000,6.4,4.0
# From MPEC 2025-R69
C/2025 K4 (Siverd),e,38.5420,297.0847,326.9263,43.20023,0.0034712,0.94138656,0.1519,09/10.0/2025,2000,g 14.1,4.0
# From MPEC 2025-R69
C/2025 L1 (ATLAS),h,01/12.7445/2026,114.1374,208.1081,341.2589,1.001374,1.679478,2000,11.4,4.0
# From MPEC 2025-R69
